RADUGA-1M 3             
1 39375U 13062A   22183.47271542  .00000163  00000+0  00000+0 0  9995
2 39375   2.2676  89.6539 0003457 154.0111 241.9766  1.00270729 31630
SES-8                   
1 39460U 13071A   22183.44860399 -.00000261  00000+0  00000+0 0  9991
2 39460   0.0491 251.2466 0002648 204.3940  81.3112  1.00272954 29935
INMARSAT 5-F1           
1 39476U 13073A   22183.44215117  .00000036  00000+0  00000+0 0  9991
2 39476   0.0234  41.0945 0000532 219.5558 241.5836  1.00270701 31098
TKSAT-1 (TUPAC KATARI)  
1 39481U 13075A   22183.48104760 -.00000186  00000+0  00000+0 0  9991
2 39481   0.0167 135.5847 0002299 316.3396 274.5618  1.00272025 31351
EXPRESS-AM5             
1 39487U 13077A   22182.59658272 -.00000272  00000+0  10000-3 0  9993
2 39487   0.0425 209.9913 0001125  93.8292 330.5867  1.00269672 31839
GSAT-14                 
1 39498U 14001A   22180.28313181 -.00000069  00000+0  00000+0 0  9993
2 39498   0.0453 108.4435 0001948 136.6416 208.1821  1.00272487 30872
THAICOM 6               
1 39500U 14002A   22183.44529038 -.00000113  00000+0  00000+0 0  9999
2 39500   0.0541 123.2372 0003954 357.7853  38.2445  1.00272494 30961
TDRS 12                 
1 39504U 14004A   22183.42145043 -.00000259  00000+0  00000+0 0  9994
2 39504   3.8460 347.5551 0004724 125.7273 277.9849  1.00274227 29785
ABS-2                   
1 39508U 14006A   22183.44459278 -.00000078  00000+0  00000+0 0  9999
2 39508   0.0218 350.4743 0003542  72.9164  92.0380  1.00272102 30793
ATHENA-FIDUS            
1 39509U 14006B   22183.43723372  .00000162  00000+0  00000+0 0  9991
2 39509   0.0132  50.3916 0001311  42.7292  22.5362  1.00268823 30586
TURKSAT 4A              
1 39522U 14007A   22183.07929531  .00000154  00000+0  00000+0 0  9993
2 39522   0.0477 253.6238 0000599 290.6256 166.3641  1.00272062 30700
EXPRESS-AT1             
1 39612U 14010A   22182.94285630  .00000087  00000+0  00000+0 0  9992
2 39612   0.0511 202.2265 0000180  59.9206  53.2416  1.00272335 30545
EXPRESS-AT2             
1 39613U 14010B   22183.05923024 -.00000273  00000+0  00000+0 0  9990
2 39613   0.0393 208.1740 0000538 128.0307 105.0140  1.00269188 30388
AMAZONAS 4A             
1 39616U 14011A   22183.47549333 -.00000244  00000+0  00000+0 0  9995
2 39616   0.0184  35.2733 0003206  83.7291 258.6853  1.00271720 30206
ASTRA 5B                
1 39617U 14011B   22183.07720250  .00000163  00000+0  00000+0 0  9990
2 39617   0.0304   1.2212 0003525 105.1895 232.9579  1.00272633 30168
IRNSS-1B                
1 39635U 14017A   22182.80257604  .00000120  00000+0  00000+0 0  9997
2 39635  28.7124 264.8644 0022565 188.0152 170.8881  1.00274467 30288
LUCH 5V                 
1 39727U 14023A   22183.44851681 -.00000260  00000+0  00000+0 0  9998
2 39727   1.5313  75.6990 0003807  50.9038  50.0009  1.00267896 29860
KAZSAT-3                
1 39728U 14023B   22183.44136637  .00000069  00000+0  00000+0 0  9992
2 39728   0.0201  82.1592 0000358 173.2961 242.3803  1.00272341 27951
EUTELSAT 3B             
1 39773U 14030A   22183.35849411  .00000028  00000+0  00000+0 0  9996
2 39773   0.0597   6.3442 0003725 127.0863 279.0536  1.00272312 29567
ASIASAT 8 (AMOS-7)      
1 40107U 14046A   22183.35709892 -.00000024  00000+0  00000+0 0  9991
2 40107   0.0361 128.3523 0001964 332.2516 304.4424  1.00272913 87641
ASIASAT 6               
1 40141U 14052A   22183.55118664 -.00000354  00000+0  00000+0 0  9995
2 40141   0.0417 268.9554 0000248 183.6245 146.3059  1.00269574 28660
OPTUS 10                
1 40146U 14054A   22183.58896914 -.00000139  00000+0  00000+0 0  9997
2 40146   0.0503 145.8375 0003520 334.6129 168.1829  1.00270558 28537
MEASAT-3B               
1 40147U 14054B   22183.44790639 -.00000233  00000+0  00000+0 0  9995
2 40147   0.0410  48.2748 0002767  36.9083  88.0103  1.00271068 28417
LUCH (OLYMP)            
1 40258U 14058A   22183.44197677  .00000042  00000+0  00000+0 0  9992
2 40258   0.0386 104.8445 0000744  88.9081 307.7018  1.00270429 26495
HIMAWARI-8              
1 40267U 14060A   22183.45766840 -.00000267  00000+0  00000+0 0  9990
2 40267   0.0119  32.2031 0000649  35.7503 157.9356  1.00270984 28260
IRNSS-1C                
1 40269U 14061A   22183.44624958 -.00000154  00000+0  00000+0 0  9990
2 40269   2.9933 128.1222 0021212   9.4880  26.4926  1.00273162 28195
INTELSAT 30 (IS-30)     
1 40271U 14062A   22182.54967062 -.00000142  00000+0  00000+0 0  9997
2 40271   0.0167 358.4890 0001500  75.0805 308.8250  1.00272393 28078
ARSAT 1                 
1 40272U 14062B   22183.47549333 -.00000251  00000+0  00000+0 0  9999
2 40272   0.0241 316.0510 0001347 139.5650 284.2378  1.00273036 28112
EXPRESS-AM6             
1 40277U 14064A   22183.08147532  .00000106  00000+0  00000+0 0  9996
2 40277   0.0530 205.9792 0000560 341.5152 174.9321  1.00272511 28170
GSAT-16                 
1 40332U 14078A   22183.44066876  .00000093  00000+0  00000+0 0  9999
2 40332   0.0426 266.1807 0007271 186.6071  41.3833  1.00270920 27611
DIRECTV 14              
1 40333U 14078B   22183.57056498 -.00000116  00000+0  00000+0 0  9990
2 40333   0.0312  82.7348 0001226  93.6832 210.3335  1.00271449 27560
YAMAL 401               
1 40345U 14082A   22183.44755759 -.00000220  00000+0  00000+0 0  9996
2 40345   0.0104   9.0435 0000409 321.1387 201.3287  1.00273471 27425
ASTRA 2G                
1 40364U 14089A   22183.07650490  .00000158  00000+0  00000+0 0  9998
2 40364   0.0315  26.1425 0004595  45.3986 264.2739  1.00273185 27465
FENGYUN 2G              
1 40367U 14090A   22183.46612184 -.00000289  00000+0  00000+0 0  9990
2 40367   1.9716  89.3467 0001492   9.6087  88.4031  1.00257675 27500
MUOS-3                  
1 40374U 15002A   22183.42650806 -.00000121  00000+0  00000+0 0  9996
2 40374   2.5600  13.3025 0054597 176.6140 228.5607  1.00272740 27093
INMARSAT 5-F2           
1 40384U 15005A   22183.46993883 -.00000277  00000+0  00000+0 0  9991
2 40384   0.0180  29.8598 0000138 140.8752 223.9262  1.00272809 26485
ABS-3A                  
1 40424U 15010A   22183.35727331 -.00000018  00000+0  00000+0 0  9996
2 40424   0.0409  71.9848 0002018 311.2175  22.7814  1.00270012 26888
EUTELSAT 115 WEST B     
1 40425U 15010B   22183.55331137 -.00000016  00000+0  00000+0 0  9992
2 40425   0.0101 162.9635 0000202 288.2449 273.6367  1.00274501 26903
EXPRESS-AM7             
1 40505U 15012A   22183.43766970  .00000159  00000+0  00000+0 0  9994
2 40505   0.0147   3.1346 0002932 101.3818  13.5008  1.00269359 26867
IRNSS-1D                
1 40547U 15018A   22182.89665167 -.00000263  00000+0  00000+0 0  9998
2 40547  28.9424 264.8967 0022549 189.3946 260.3155  1.00272487 26499
BEIDOU 17               
1 40549U 15019A   22182.83894336 -.00000167  00000+0  00000+0 0  9990
2 40549  51.8641 312.5890 0036757 193.3371 168.9224  1.00293919 26589
THOR 7                  
1 40613U 15022A   22183.07074966  .00000000  00000+0  00000+0 0  9997
2 40613   0.0130  91.7527 0002505   7.2408 205.9036  1.00272118 26302
TURKMENALEM52E/MONACOSAT
1 40617U 15023A   22183.08130093  .00000112  00000+0  00000+0 0  9991
2 40617   0.0165  53.2058 0002298  52.6343 255.5506  1.00270082 26331
DIRECTV 15              
1 40663U 15026A   22183.62636869 -.00000093  00000+0  00000+0 0  9996
2 40663   0.0307  85.8518 0000360 264.5838  52.8399  1.00265475 25969
SKY MEXICO-1            
1 40664U 15026B   22183.48104760 -.00000226  00000+0  00000+0 0  9999
2 40664   0.0166  53.4431 0001911  54.2725 267.1923  1.00272447 25950
METEOSAT-11 (MSG-4)     
1 40732U 15034A   22183.07092407  .00000008  00000+0  00000+0 0  9990
2 40732   0.3167  59.5277 0001749  64.9470 181.4487  1.00280006 25525
STAR ONE C4             
1 40733U 15034B   22183.47549333 -.00000256  00000+0  00000+0 0  9996
2 40733   0.0202  18.9757 0001806  55.7760 306.9161  1.00273003 25521
WGS F7 (USA 263)        
1 40746U 15036A   22183.61250407  .00000026  00000+0  00000+0 0  9993
2 40746   0.0339  70.5105 0000559 117.8222 127.7659  1.00271404 25371
INTELSAT 34 (IS-34)     
1 40874U 15039A   22182.70108814 -.00000277  00000+0  00000+0 0  9990
2 40874   0.0096  35.2205 0000608 317.2649 124.1290  1.00271795 25124
EUTELSAT 8 WEST B       
1 40875U 15039B   22183.42807766 -.00000057  00000+0  00000+0 0  9999
2 40875   0.0620   6.8642 0005764  76.6306 343.0386  1.00271497 25151
GSAT-6                  
1 40880U 15041A   22183.44616238 -.00000152  00000+0  00000+0 0  9998
2 40880   0.0334  69.4518 0003631  49.7977  44.3680  1.00271632 25117
INMARSAT 5-F3           
1 40882U 15042A   22183.52794855  .00000059  00000+0  00000+0 0  9997
2 40882   0.0184  37.1103 0000558  95.4900 157.5940  1.00270866 25061
MUOS-4                  
1 40887U 15044A   22183.44467998 -.00000086  00000+0  00000+0 0  9991
2 40887   2.5528   8.3379 0054190   1.8094 145.4257  1.00272340 25062
TJS-1                   
1 40892U 15046A   22183.58719516 -.00000147  00000+0  00000+0 0  9998
2 40892   0.0855  99.4351 0000834  29.2021 158.3650  1.00273740 25060
EXPRESS-AM8             
1 40895U 15048A   22183.24007542 -.00000103  00000+0  00000+0 0  9997
2 40895   0.0678 217.7802 0000157  16.8682 118.0237  1.00270950 24877
BEIDOU 20               
1 40938U 15053A   22182.73093299 -.00000115  00000+0  00000+0 0  9991
2 40938  51.4771 275.7124 0045503 196.8667 165.1207  1.00289939 24851
SKY MUSTER 1 (NBN1A)    
1 40940U 15054A   22183.02704660 -.00000270  00000+0  00000+0 0  9991
2 40940   0.0185 346.3313 0001648 108.1576 335.5365  1.00272085 24756
ARSAT 2                 
1 40941U 15054B   22183.48104760 -.00000216  00000+0  00000+0 0  9997
2 40941   0.0205 319.9012 0001739 128.0691 284.6940  1.00273001 24822
MORELOS 3               
1 40946U 15056A   22183.55467529 -.00000032  00000+0  00000+0 0  9993
2 40946   3.7008 335.1542 0002620 181.6893 210.3032  1.00271373 24799
